{
  "type": "FeatureCollection",
  "features": [
    {
      "type": "Feature",
      "properties": {
        "norad_id": 66969,
        "name": "STARLINK-36149",
        "group": "last-30-days",
        "lat": -34.21631556895755,
        "lon": -53.25500357172401,
        "alt_km": 397.12672648931766,
        "timestamp": "2025-12-27T02:10:14.909600+00:00",
        "meta_object_name": "STARLINK-36149",
        "meta_object_id": "2025-288L",
        "meta_epoch": "2025-12-26T20:00:01.999008",
        "meta_mean_motion": 15.58686257,
        "meta_eccentricity": 0.0001134,
        "meta_inclination": 43.0001,
        "meta_ra_of_asc_node": 81.4008,
        "meta_arg_of_pericenter": 278.4811,
        "meta_mean_anomaly": 313.2245,
        "meta_ephemeris_type": 0,
        "meta_classification_type": "U",
        "meta_norad_cat_id": 66969,
        "meta_element_set_no": 999,
        "meta_rev_at_epoch": 409,
        "meta_bstar": -0.029031,
        "meta_mean_motion_dot": -0.02010612,
        "meta_mean_motion_ddot": 0,
        "tle_line1": "1 66969U 25288L   25360.83335647 -.02010612  00000+0 -29031-1 0  9995",
        "tle_line2": "2 66969  43.0001  81.4008 0001134 278.4811 313.2245 15.58686257  4093"
      },
      "geometry": {
        "type": "Point",
        "coordinates": [
          -53.25500357172401,
          -34.21631556895755
        ]
      }
    },
    {
      "type": "Feature",
      "properties": {
        "norad_id": 66970,
        "name": "STARLINK-35703",
        "group": "last-30-days",
        "lat": -37.493494861994016,
        "lon": -44.72802589726585,
        "alt_km": 397.1442823093312,
        "timestamp": "2025-12-27T02:10:14.909612+00:00",
        "meta_object_name": "STARLINK-35703",
        "meta_object_id": "2025-288M",
        "meta_epoch": "2025-12-26T20:00:01.999008",
        "meta_mean_motion": 15.5868231,
        "meta_eccentricity": 0.000119,
        "meta_inclination": 43.0001,
        "meta_ra_of_asc_node": 81.3814,
        "meta_arg_of_pericenter": 274.8825,
        "meta_mean_anomaly": 324.4917,
        "meta_ephemeris_type": 0,
        "meta_classification_type": "U",
        "meta_norad_cat_id": 66970,
        "meta_element_set_no": 999,
        "meta_rev_at_epoch": 409,
        "meta_bstar": -0.028918,
        "meta_mean_motion_dot": -0.02003524,
        "meta_mean_motion_ddot": 0,
        "tle_line1": "1 66970U 25288M   25360.83335647 -.02003524  00000+0 -28918-1 0  9994",
        "tle_line2": "2 66970  43.0001  81.3814 0001190 274.8825 324.4917 15.58682310  4092"
      },
      "geometry": {
        "type": "Point",
        "coordinates": [
          -44.72802589726585,
          -37.493494861994016
        ]
      }
    },
    {
      "type": "Feature",
      "properties": {
        "norad_id": 66971,
        "name": "STARLINK-35678",
        "group": "last-30-days",
        "lat": -30.3922641389213,
        "lon": -61.09387641535169,
        "alt_km": 396.96811849206824,
        "timestamp": "2025-12-27T02:10:14.909623+00:00",
        "meta_object_name": "STARLINK-35678",
        "meta_object_id": "2025-288N",
        "meta_epoch": "2025-12-26T20:00:01.999008",
        "meta_mean_motion": 15.58682665,
        "meta_eccentricity": 0.0001164,
        "meta_inclination": 43.0003,
        "meta_ra_of_asc_node": 81.421,
        "meta_arg_of_pericenter": 278.0018,
        "meta_mean_anomaly": 306.0358,
        "meta_ephemeris_type": 0,
        "meta_classification_type": "U",
        "meta_norad_cat_id": 66971,
        "meta_element_set_no": 999,
        "meta_rev_at_epoch": 409,
        "meta_bstar": -0.028898,
        "meta_mean_motion_dot": -0.02002331,
        "meta_mean_motion_ddot": 0,
        "tle_line1": "1 66971U 25288N   25360.83335647 -.02002331  00000+0 -28898-1 0  9997",
        "tle_line2": "2 66971  43.0003  81.4210 0001164 278.0018 306.0358 15.58682665  4095"
      },
      "geometry": {
        "type": "Point",
        "coordinates": [
          -61.09387641535169,
          -30.3922641389213
        ]
      }
    },
    {
      "type": "Feature",
      "properties": {
        "norad_id": 66972,
        "name": "STARLINK-34846",
        "group": "last-30-days",
        "lat": -31.39365583801667,
        "lon": -59.194297947093425,
        "alt_km": 396.96323439285425,
        "timestamp": "2025-12-27T02:10:14.909633+00:00",
        "meta_object_name": "STARLINK-34846",
        "meta_object_id": "2025-288P",
        "meta_epoch": "2025-12-26T20:00:01.999008",
        "meta_mean_motion": 15.5868919,
        "meta_eccentricity": 0.0001283,
        "meta_inclination": 43.0001,
        "meta_ra_of_asc_node": 81.4162,
        "meta_arg_of_pericenter": 278.3521,
        "meta_mean_anomaly": 307.603,
        "meta_ephemeris_type": 0,
        "meta_classification_type": "U",
        "meta_norad_cat_id": 66972,
        "meta_element_set_no": 999,
        "meta_rev_at_epoch": 409,
        "meta_bstar": -0.029108,
        "meta_mean_motion_dot": -0.02015569,
        "meta_mean_motion_ddot": 0,
        "tle_line1": "1 66972U 25288P   25360.83335647 -.02015569  00000+0 -29108-1 0  9990",
        "tle_line2": "2 66972  43.0001  81.4162 0001283 278.3521 307.6030 15.58689190  4098"
      },
      "geometry": {
        "type": "Point",
        "coordinates": [
          -59.194297947093425,
          -31.39365583801667
        ]
      }
    },
    {
      "type": "Feature",
      "properties": {
        "norad_id": 66973,
        "name": "STARLINK-35778",
        "group": "last-30-days",
        "lat": -32.364472041527534,
        "lon": -57.25796697765869,
        "alt_km": 397.0748957224223,
        "timestamp": "2025-12-27T02:10:14.909643+00:00",
        "meta_object_name": "STARLINK-35778",
        "meta_object_id": "2025-288Q",
        "meta_epoch": "2025-12-26T20:00:01.999008",
        "meta_mean_motion": 15.5868329,
        "meta_eccentricity": 0.0001121,
        "meta_inclination": 43,
        "meta_ra_of_asc_node": 81.4116,
        "meta_arg_of_pericenter": 279.1988,
        "meta_mean_anomaly": 308.6712,
        "meta_ephemeris_type": 0,
        "meta_classification_type": "U",
        "meta_norad_cat_id": 66973,
        "meta_element_set_no": 999,
        "meta_rev_at_epoch": 409,
        "meta_bstar": -0.028897,
        "meta_mean_motion_dot": -0.02002298,
        "meta_mean_motion_ddot": 0,
        "tle_line1": "1 66973U 25288Q   25360.83335647 -.02002298  00000+0 -28897-1 0  9990",
        "tle_line2": "2 66973  43.0000  81.4116 0001121 279.1988 308.6712 15.58683290  4097"
      },
      "geometry": {
        "type": "Point",
        "coordinates": [
          -57.25796697765869,
          -32.364472041527534
        ]
      }
    },
    {
      "type": "Feature",
      "properties": {
        "norad_id": 66974,
        "name": "STARLINK-35780",
        "group": "last-30-days",
        "lat": -33.306709628245336,
        "lon": -55.277176604970336,
        "alt_km": 397.3114506329375,
        "timestamp": "2025-12-27T02:10:14.909653+00:00",
        "meta_object_name": "STARLINK-35780",
        "meta_object_id": "2025-288R",
        "meta_epoch": "2025-12-26T20:00:01.999008",
        "meta_mean_motion": 15.58680773,
        "meta_eccentricity": 0.0001004,
        "meta_inclination": 43.0002,
        "meta_ra_of_asc_node": 81.4067,
        "meta_arg_of_pericenter": 290.1947,
        "meta_mean_anomaly": 299.5957,
        "meta_ephemeris_type": 0,
        "meta_classification_type": "U",
        "meta_norad_cat_id": 66974,
        "meta_element_set_no": 999,
        "meta_rev_at_epoch": 409,
        "meta_bstar": -0.02886,
        "meta_mean_motion_dot": -0.01999795,
        "meta_mean_motion_ddot": 0,
        "tle_line1": "1 66974U 25288R   25360.83335647 -.01999795  00000+0 -28860-1 0  9997",
        "tle_line2": "2 66974  43.0002  81.4067 0001004 290.1947 299.5957 15.58680773  4095"
      },
      "geometry": {
        "type": "Point",
        "coordinates": [
          -55.277176604970336,
          -33.306709628245336
        ]
      }
    },
    {
      "type": "Feature",
      "properties": {
        "norad_id": 66975,
        "name": "STARLINK-35777",
        "group": "last-30-days",
        "lat": -35.09170302869653,
        "lon": -51.18899864825586,
        "alt_km": 396.9927769515434,
        "timestamp": "2025-12-27T02:10:14.909662+00:00",
        "meta_object_name": "STARLINK-35777",
        "meta_object_id": "2025-288S",
        "meta_epoch": "2025-12-26T20:00:01.999008",
        "meta_mean_motion": 15.58701459,
        "meta_eccentricity": 0.0001402,
        "meta_inclination": 43,
        "meta_ra_of_asc_node": 81.3956,
        "meta_arg_of_pericenter": 276.237,
        "meta_mean_anomaly": 317.3824,
        "meta_ephemeris_type": 0,
        "meta_classification_type": "U",
        "meta_norad_cat_id": 66975,
        "meta_element_set_no": 999,
        "meta_rev_at_epoch": 409,
        "meta_bstar": -0.029493,
        "meta_mean_motion_dot": -0.02079139,
        "meta_mean_motion_ddot": 0,
        "tle_line1": "1 66975U 25288S   25360.83335647 -.02079139  00000+0 -29493-1 0  9993",
        "tle_line2": "2 66975  43.0000  81.3956 0001402 276.2370 317.3824 15.58701459  4094"
      },
      "geometry": {
        "type": "Point",
        "coordinates": [
          -51.18899864825586,
          -35.09170302869653
        ]
      }
    }
  ]
}